ONEWEB-0311             
1 49097U 21075Y   25009.81962866 -.00000119  00000+0 -33946-3 0  9996
2 49097  87.9106 110.1317 0001900  93.5590 266.5759 13.17648053164703
ONEWEB-0312             
1 49098U 21075Z   25009.75887969 -.00000036  00000+0 -12499-3 0  9998
2 49098  87.9104 110.1756 0002198 102.6268 257.5109 13.17651060164670
ONEWEB-0313             
1 49099U 21075AA  25009.76380160 -.00000026  00000+0 -10098-3 0  9993
2 49099  87.9103 110.1903 0001960 101.9224 258.2127 13.17650873165663
ONEWEB-0314             
1 49100U 21075AB  25009.80612657 -.00000044  00000+0 -14587-3 0  9997
2 49100  87.9099 110.1192 0002117 102.0985 258.0384 13.17651213164640
ONEWEB-0315             
1 49101U 21075AC  25009.76501126  .00000318  00000+0  84888-3 0  9994
2 49101  87.8870  94.8772 0001789  90.9225 269.2108 13.12440600166512
ONEWEB-0316             
1 49102U 21075AD  25009.68752840 -.00000002  00000+0 -38568-4 0  9994
2 49102  87.9097  79.6153 0001913  95.8403 264.2947 13.18687324168217
ONEWEB-0317             
1 49103U 21075AE  25009.75852333  .00000392  00000+0  10542-2 0  9991
2 49103  87.8872  94.8914 0001661 121.2422 238.8870 13.12441467166532
ONEWEB-0318             
1 49104U 21075AF  25009.68437328 -.00000027  00000+0 -10008-3 0  9992
2 49104  87.9094  79.6040 0001928  93.3064 266.8288 13.18687239169170
